[{"OBJECT_NAME":"QIANFAN-115","OBJECT_ID":"2026-075G","EPOCH":"2026-04-26T19:04:14.685888","MEAN_MOTION":14.20357512,"ECCENTRICITY":0.00160524,"INCLINATION":88.9897,"RA_OF_ASC_NODE":326.4994,"ARG_OF_PERICENTER":153.6761,"MEAN_ANOMALY":206.5249,"EPHEMERIS_TYPE":0,"CLASSIFICATION_TYPE":"U","NORAD_CAT_ID":68642,"ELEMENT_SET_NO":999,"REV_AT_EPOCH":273,"BSTAR":4.6949792e-5,"MEAN_MOTION_DOT":1.15e-6,"MEAN_MOTION_DDOT":0},{"OBJECT_NAME":"QIANFAN-116","OBJECT_ID":"2026-075H","EPOCH":"2026-04-26T17:18:47.259648","MEAN_MOTION":14.20671829,"ECCENTRICITY":0.0015813,"INCLINATION":88.9896,"RA_OF_ASC_NODE":326.5069,"ARG_OF_PERICENTER":153.2432,"MEAN_ANOMALY":206.9578,"EPHEMERIS_TYPE":0,"CLASSIFICATION_TYPE":"U","NORAD_CAT_ID":68643,"ELEMENT_SET_NO":999,"REV_AT_EPOCH":272,"BSTAR":5.6358522e-5,"MEAN_MOTION_DOT":1.36e-6,"MEAN_MOTION_DDOT":0},{"OBJECT_NAME":"QIANFAN-117","OBJECT_ID":"2026-075J","EPOCH":"2026-04-26T19:10:42.895776","MEAN_MOTION":14.20247165,"ECCENTRICITY":0.0015871,"INCLINATION":88.9897,"RA_OF_ASC_NODE":326.5002,"ARG_OF_PERICENTER":152.1337,"MEAN_ANOMALY":208.0707,"EPHEMERIS_TYPE":0,"CLASSIFICATION_TYPE":"U","NORAD_CAT_ID":68644,"ELEMENT_SET_NO":999,"REV_AT_EPOCH":273,"BSTAR":5.0932125e-5,"MEAN_MOTION_DOT":1.23e-6,"MEAN_MOTION_DDOT":0},{"OBJECT_NAME":"QIANFAN-118","OBJECT_ID":"2026-075K","EPOCH":"2026-04-26T18:57:24.463872","MEAN_MOTION":14.21389902,"ECCENTRICITY":0.001524,"INCLINATION":88.9896,"RA_OF_ASC_NODE":326.4986,"ARG_OF_PERICENTER":151.0662,"MEAN_ANOMALY":209.1377,"EPHEMERIS_TYPE":0,"CLASSIFICATION_TYPE":"U","NORAD_CAT_ID":68645,"ELEMENT_SET_NO":999,"REV_AT_EPOCH":273,"BSTAR":5.5902739e-5,"MEAN_MOTION_DOT":1.37e-6,"MEAN_MOTION_DDOT":0},{"OBJECT_NAME":"QIANFAN-119","OBJECT_ID":"2026-075L","EPOCH":"2026-04-26T18:45:58.525632","MEAN_MOTION":14.22771427,"ECCENTRICITY":0.00155642,"INCLINATION":88.9899,"RA_OF_ASC_NODE":326.4978,"ARG_OF_PERICENTER":152.7004,"MEAN_ANOMALY":207.5009,"EPHEMERIS_TYPE":0,"CLASSIFICATION_TYPE":"U","NORAD_CAT_ID":68646,"ELEMENT_SET_NO":999,"REV_AT_EPOCH":273,"BSTAR":4.4143806e-5,"MEAN_MOTION_DOT":1.14e-6,"MEAN_MOTION_DDOT":0},{"OBJECT_NAME":"QIANFAN-120","OBJECT_ID":"2026-075M","EPOCH":"2026-04-26T20:27:52.360704","MEAN_MOTION":14.22213935,"ECCENTRICITY":0.00156524,"INCLINATION":88.9899,"RA_OF_ASC_NODE":326.4898,"ARG_OF_PERICENTER":152.5022,"MEAN_ANOMALY":207.7001,"EPHEMERIS_TYPE":0,"CLASSIFICATION_TYPE":"U","NORAD_CAT_ID":68647,"ELEMENT_SET_NO":999,"REV_AT_EPOCH":274,"BSTAR":5.0617318e-5,"MEAN_MOTION_DOT":1.27e-6,"MEAN_MOTION_DDOT":0},{"OBJECT_NAME":"QIANFAN-121","OBJECT_ID":"2026-075N","EPOCH":"2026-04-26T20:24:57.056832","MEAN_MOTION":14.22352364,"ECCENTRICITY":0.00150711,"INCLINATION":88.9899,"RA_OF_ASC_NODE":326.4894,"ARG_OF_PERICENTER":153.5205,"MEAN_ANOMALY":206.676,"EPHEMERIS_TYPE":0,"CLASSIFICATION_TYPE":"U","NORAD_CAT_ID":68648,"ELEMENT_SET_NO":999,"REV_AT_EPOCH":274,"BSTAR":5.5811243e-5,"MEAN_MOTION_DOT":1.39e-6,"MEAN_MOTION_DDOT":0},{"OBJECT_NAME":"QIANFAN-122","OBJECT_ID":"2026-075P","EPOCH":"2026-04-26T18:37:53.715360","MEAN_MOTION":14.22896943,"ECCENTRICITY":0.00152067,"INCLINATION":88.9898,"RA_OF_ASC_NODE":326.4969,"ARG_OF_PERICENTER":152.9478,"MEAN_ANOMALY":207.251,"EPHEMERIS_TYPE":0,"CLASSIFICATION_TYPE":"U","NORAD_CAT_ID":68649,"ELEMENT_SET_NO":999,"REV_AT_EPOCH":273,"BSTAR":5.3054937e-5,"MEAN_MOTION_DOT":1.34e-6,"MEAN_MOTION_DDOT":0},{"OBJECT_NAME":"QIANFAN-123","OBJECT_ID":"2026-075Q","EPOCH":"2026-04-26T19:07:05.367360","MEAN_MOTION":14.20190173,"ECCENTRICITY":0.00155737,"INCLINATION":88.9895,"RA_OF_ASC_NODE":326.4993,"ARG_OF_PERICENTER":152.9293,"MEAN_ANOMALY":207.2713,"EPHEMERIS_TYPE":0,"CLASSIFICATION_TYPE":"U","NORAD_CAT_ID":68650,"ELEMENT_SET_NO":999,"REV_AT_EPOCH":270,"BSTAR":5.121e-5,"MEAN_MOTION_DOT":1.24e-6,"MEAN_MOTION_DDOT":0},{"OBJECT_NAME":"QIANFAN-124","OBJECT_ID":"2026-075R","EPOCH":"2026-04-26T20:19:28.960608","MEAN_MOTION":14.227171,"ECCENTRICITY":0.00157869,"INCLINATION":88.9898,"RA_OF_ASC_NODE":326.4888,"ARG_OF_PERICENTER":152.5444,"MEAN_ANOMALY":207.6585,"EPHEMERIS_TYPE":0,"CLASSIFICATION_TYPE":"U","NORAD_CAT_ID":68651,"ELEMENT_SET_NO":999,"REV_AT_EPOCH":274,"BSTAR":5.3774646e-5,"MEAN_MOTION_DOT":1.35e-6,"MEAN_MOTION_DDOT":0},{"OBJECT_NAME":"QIANFAN-125","OBJECT_ID":"2026-075S","EPOCH":"2026-04-26T18:32:08.446272","MEAN_MOTION":14.23396961,"ECCENTRICITY":0.00155027,"INCLINATION":88.99,"RA_OF_ASC_NODE":326.4965,"ARG_OF_PERICENTER":153.2027,"MEAN_ANOMALY":206.9969,"EPHEMERIS_TYPE":0,"CLASSIFICATION_TYPE":"U","NORAD_CAT_ID":68652,"ELEMENT_SET_NO":999,"REV_AT_EPOCH":273,"BSTAR":4.7859111e-5,"MEAN_MOTION_DOT":1.23e-6,"MEAN_MOTION_DDOT":0},{"OBJECT_NAME":"QIANFAN-126","OBJECT_ID":"2026-075T","EPOCH":"2026-04-26T20:01:25.139136","MEAN_MOTION":14.24951204,"ECCENTRICITY":0.00155553,"INCLINATION":88.9898,"RA_OF_ASC_NODE":326.4868,"ARG_OF_PERICENTER":152.4612,"MEAN_ANOMALY":207.7408,"EPHEMERIS_TYPE":0,"CLASSIFICATION_TYPE":"U","NORAD_CAT_ID":68653,"ELEMENT_SET_NO":999,"REV_AT_EPOCH":274,"BSTAR":3.7363517e-5,"MEAN_MOTION_DOT":1.02e-6,"MEAN_MOTION_DDOT":0},{"OBJECT_NAME":"CZ-8 R/B","OBJECT_ID":"2026-075U","EPOCH":"2026-04-26T20:31:10.545888","MEAN_MOTION":14.40037975,"ECCENTRICITY":0.00733034,"INCLINATION":88.9888,"RA_OF_ASC_NODE":326.4299,"ARG_OF_PERICENTER":56.9654,"MEAN_ANOMALY":303.8561,"EPHEMERIS_TYPE":0,"CLASSIFICATION_TYPE":"U","NORAD_CAT_ID":68654,"ELEMENT_SET_NO":999,"REV_AT_EPOCH":276,"BSTAR":8.5466313e-5,"MEAN_MOTION_DOT":2.94e-6,"MEAN_MOTION_DDOT":0},{"OBJECT_NAME":"HULIANWANG DIGUI-164","OBJECT_ID":"2026-076A","EPOCH":"2026-04-24T14:20:34.915776","MEAN_MOTION":13.74650322,"ECCENTRICITY":0.00035753,"INCLINATION":86.4928,"RA_OF_ASC_NODE":62.551,"ARG_OF_PERICENTER":132.16,"MEAN_ANOMALY":227.9867,"EPHEMERIS_TYPE":0,"CLASSIFICATION_TYPE":"U","NORAD_CAT_ID":68656,"ELEMENT_SET_NO":999,"REV_AT_EPOCH":218,"BSTAR":-0.0010856389,"MEAN_MOTION_DOT":-1.012e-5,"MEAN_MOTION_DDOT":0},{"OBJECT_NAME":"HULIANWANG DIGUI-165","OBJECT_ID":"2026-076B","EPOCH":"2026-04-24T17:46:08.054400","MEAN_MOTION":13.74468974,"ECCENTRICITY":0.00028286,"INCLINATION":86.4957,"RA_OF_ASC_NODE":62.4923,"ARG_OF_PERICENTER":115.2808,"MEAN_ANOMALY":244.8647,"EPHEMERIS_TYPE":0,"CLASSIFICATION_TYPE":"U","NORAD_CAT_ID":68657,"ELEMENT_SET_NO":999,"REV_AT_EPOCH":220,"BSTAR":0.00018103874,"MEAN_MOTION_DOT":1.88e-6,"MEAN_MOTION_DDOT":0},{"OBJECT_NAME":"HULIANWANG DIGUI-166","OBJECT_ID":"2026-076C","EPOCH":"2026-04-24T08:57:59.186016","MEAN_MOTION":13.75290951,"ECCENTRICITY":0.00016972,"INCLINATION":86.492,"RA_OF_ASC_NODE":62.6107,"ARG_OF_PERICENTER":91.4568,"MEAN_ANOMALY":268.6789,"EPHEMERIS_TYPE":0,"CLASSIFICATION_TYPE":"U","NORAD_CAT_ID":68658,"ELEMENT_SET_NO":999,"REV_AT_EPOCH":215,"BSTAR":-0.00054374613,"MEAN_MOTION_DOT":-5.04e-6,"MEAN_MOTION_DDOT":0},{"OBJECT_NAME":"HULIANWANG DIGUI-167","OBJECT_ID":"2026-076D","EPOCH":"2026-04-24T08:53:05.140896","MEAN_MOTION":13.75306652,"ECCENTRICITY":0.00013728,"INCLINATION":86.4974,"RA_OF_ASC_NODE":62.6251,"ARG_OF_PERICENTER":103.4929,"MEAN_ANOMALY":256.6387,"EPHEMERIS_TYPE":0,"CLASSIFICATION_TYPE":"U","NORAD_CAT_ID":68659,"ELEMENT_SET_NO":999,"REV_AT_EPOCH":215,"BSTAR":-7.0278323e-5,"MEAN_MOTION_DOT":-5.1e-7,"MEAN_MOTION_DDOT":0}]
