QIANFAN-115             
1 68642U 26075G   26116.79461442  .00000115  00000+0  46950-4 0  9993
2 68642  88.9897 326.4994 0016052 153.6761 206.5249 14.20357512  2737
QIANFAN-116             
1 68643U 26075H   26116.72138032  .00000136  00000+0  56359-4 0  9990
2 68643  88.9896 326.5069 0015813 153.2432 206.9578 14.20671829  2724
QIANFAN-117             
1 68644U 26075J   26116.79910759  .00000123  00000+0  50932-4 0  9999
2 68644  88.9897 326.5002 0015871 152.1337 208.0707 14.20247165  2739
QIANFAN-118             
1 68645U 26075K   26116.78986648  .00000137  00000+0  55903-4 0  9997
2 68645  88.9896 326.4986 0015240 151.0662 209.1377 14.21389902  2730
QIANFAN-119             
1 68646U 26075L   26116.78192738  .00000114  00000+0  44144-4 0  9997
2 68646  88.9899 326.4978 0015564 152.7004 207.5009 14.22771427  2734
QIANFAN-120             
1 68647U 26075M   26116.85268936  .00000127  00000+0  50617-4 0  9996
2 68647  88.9899 326.4898 0015652 152.5022 207.7001 14.22213935  2742
QIANFAN-121             
1 68648U 26075N   26116.85066038  .00000139  00000+0  55811-4 0  9990
2 68648  88.9899 326.4894 0015071 153.5205 206.6760 14.22352364  2748
QIANFAN-122             
1 68649U 26075P   26116.77631615  .00000134  00000+0  53055-4 0  9994
2 68649  88.9898 326.4969 0015206 152.9478 207.2510 14.22896943  2731
QIANFAN-123             
1 68650U 26075Q   26116.79658990  .00000124  00000+0  51210-4 0  9993
2 68650  88.9895 326.4993 0015573 152.9293 207.2713 14.20190173  2701
QIANFAN-124             
1 68651U 26075R   26116.84686297  .00000135  00000+0  53775-4 0  9991
2 68651  88.9898 326.4888 0015786 152.5444 207.6585 14.22717100  2740
QIANFAN-125             
1 68652U 26075S   26116.77231998  .00000123  00000+0  47859-4 0  9991
2 68652  88.9900 326.4965 0015502 153.2027 206.9969 14.23396961  2738
QIANFAN-126             
1 68653U 26075T   26116.83431874  .00000102  00000+0  37364-4 0  9991
2 68653  88.9898 326.4868 0015555 152.4612 207.7408 14.24951204  2742
CZ-8 R/B                
1 68654U 26075U   26116.85498317  .00000294  00000+0  85466-4 0  9997
2 68654  88.9888 326.4299 0073303  56.9654 303.8561 14.40037975  2767
HULIANWANG DIGUI-164    
1 68656U 26076A   26114.59762634 -.00001012  00000+0 -10856-2 0  9995
2 68656  86.4928  62.5510 0003575 132.1600 227.9867 13.74650322  2187
HULIANWANG DIGUI-165    
1 68657U 26076B   26114.74037100  .00000188  00000+0  18104-3 0  9992
2 68657  86.4957  62.4923 0002828 115.2808 244.8647 13.74468974  2206
HULIANWANG DIGUI-166    
1 68658U 26076C   26114.37360169 -.00000504  00000+0 -54375-3 0  9990
2 68658  86.4920  62.6107 0001697  91.4568 268.6789 13.75290951  2158
HULIANWANG DIGUI-167    
1 68659U 26076D   26114.37019839 -.00000051  00000+0 -70278-4 0  9994
2 68659  86.4974  62.6251 0001372 103.4929 256.6387 13.75306652  2150
